{
  "type": "FeatureCollection",
  "features": [
    {
      "type": "Feature",
      "properties": {
        "norad_id": 66669,
        "name": "TRANSPORTER-15 D",
        "group": "last-30-days",
        "lat": -32.707752644546254,
        "lon": 70.26231527617666,
        "alt_km": 516.7437507292416,
        "timestamp": "2025-12-19T20:42:58.812043+00:00",
        "meta_object_name": "TRANSPORTER-15 D",
        "meta_object_id": "2025-276D",
        "meta_epoch": "2025-12-18T22:42:03.782304",
        "meta_mean_motion": 15.17164663,
        "meta_eccentricity": 0.00076344,
        "meta_inclination": 97.4301,
        "meta_ra_of_asc_node": 64.5555,
        "meta_arg_of_pericenter": 285.8763,
        "meta_mean_anomaly": 74.1629,
        "meta_ephemeris_type": 0,
        "meta_classification_type": "U",
        "meta_norad_cat_id": 66669,
        "meta_element_set_no": 999,
        "meta_rev_at_epoch": 306,
        "meta_bstar": 0.00096187739,
        "meta_mean_motion_dot": 0.00019077,
        "meta_mean_motion_ddot": 0,
        "tle_line1": "1 66669U 25276D   25352.94587711  .00019077  00000+0  96188-3 0  9992",
        "tle_line2": "2 66669  97.4301  64.5555 0007634 285.8763  74.1629 15.17164663  3066"
      },
      "geometry": {
        "type": "Point",
        "coordinates": [
          70.26231527617666,
          -32.707752644546254
        ]
      }
    },
    {
      "type": "Feature",
      "properties": {
        "norad_id": 66670,
        "name": "TRANSPORTER-15 E",
        "group": "last-30-days",
        "lat": -34.90929551924252,
        "lon": 70.68270864362088,
        "alt_km": 517.1279351811418,
        "timestamp": "2025-12-19T20:42:58.812054+00:00",
        "meta_object_name": "TRANSPORTER-15 E",
        "meta_object_id": "2025-276E",
        "meta_epoch": "2025-12-19T00:17:33.614304",
        "meta_mean_motion": 15.17087075,
        "meta_eccentricity": 0.0007228,
        "meta_inclination": 97.4315,
        "meta_ra_of_asc_node": 64.622,
        "meta_arg_of_pericenter": 286.6112,
        "meta_mean_anomaly": 73.4327,
        "meta_ephemeris_type": 0,
        "meta_classification_type": "U",
        "meta_norad_cat_id": 66670,
        "meta_element_set_no": 999,
        "meta_rev_at_epoch": 307,
        "meta_bstar": 0.00091758231,
        "meta_mean_motion_dot": 0.00018152,
        "meta_mean_motion_ddot": 0,
        "tle_line1": "1 66670U 25276E   25353.01219461  .00018152  00000+0  91758-3 0  9998",
        "tle_line2": "2 66670  97.4315  64.6220 0007228 286.6112  73.4327 15.17087075  3078"
      },
      "geometry": {
        "type": "Point",
        "coordinates": [
          70.68270864362088,
          -34.90929551924252
        ]
      }
    },
    {
      "type": "Feature",
      "properties": {
        "norad_id": 66671,
        "name": "TRANSPORTER-15 F",
        "group": "last-30-days",
        "lat": -22.749506501318397,
        "lon": 68.63471223345091,
        "alt_km": 519.1351970604637,
        "timestamp": "2025-12-19T20:42:58.812064+00:00",
        "meta_object_name": "TRANSPORTER-15 F",
        "meta_object_id": "2025-276F",
        "meta_epoch": "2025-12-19T03:24:13.995360",
        "meta_mean_motion": 15.17033323,
        "meta_eccentricity": 0.00050574,
        "meta_inclination": 97.4437,
        "meta_ra_of_asc_node": 64.7835,
        "meta_arg_of_pericenter": 268.681,
        "meta_mean_anomaly": 91.3844,
        "meta_ephemeris_type": 0,
        "meta_classification_type": "U",
        "meta_norad_cat_id": 66671,
        "meta_element_set_no": 999,
        "meta_rev_at_epoch": 309,
        "meta_bstar": 0.00048068487,
        "meta_mean_motion_dot": 9.448e-05,
        "meta_mean_motion_ddot": 0,
        "tle_line1": "1 66671U 25276F   25353.14182865  .00009448  00000+0  48068-3 0  9994",
        "tle_line2": "2 66671  97.4437  64.7835 0005057 268.6810  91.3844 15.17033323  3092"
      },
      "geometry": {
        "type": "Point",
        "coordinates": [
          68.63471223345091,
          -22.749506501318397
        ]
      }
    },
    {
      "type": "Feature",
      "properties": {
        "norad_id": 66672,
        "name": "TRANSPORTER-15 G",
        "group": "last-30-days",
        "lat": -43.69795242280931,
        "lon": 72.6505062002152,
        "alt_km": 520.5124713611222,
        "timestamp": "2025-12-19T20:42:58.812074+00:00",
        "meta_object_name": "TRANSPORTER-15 G",
        "meta_object_id": "2025-276G",
        "meta_epoch": "2025-12-18T03:44:21.948576",
        "meta_mean_motion": 15.16580217,
        "meta_eccentricity": 0.00054027,
        "meta_inclination": 97.4412,
        "meta_ra_of_asc_node": 63.801,
        "meta_arg_of_pericenter": 271.298,
        "meta_mean_anomaly": 88.7634,
        "meta_ephemeris_type": 0,
        "meta_classification_type": "U",
        "meta_norad_cat_id": 66672,
        "meta_element_set_no": 999,
        "meta_rev_at_epoch": 294,
        "meta_bstar": 0.00018718295,
        "meta_mean_motion_dot": 3.589e-05,
        "meta_mean_motion_ddot": 0,
        "tle_line1": "1 66672U 25276G   25352.15580959  .00003589  00000+0  18718-3 0  9990",
        "tle_line2": "2 66672  97.4412  63.8010 0005402 271.2980  88.7634 15.16580217  2941"
      },
      "geometry": {
        "type": "Point",
        "coordinates": [
          72.6505062002152,
          -43.69795242280931
        ]
      }
    },
    {
      "type": "Feature",
      "properties": {
        "norad_id": 66673,
        "name": "TRANSPORTER-15 H",
        "group": "last-30-days",
        "lat": -28.14989814460902,
        "lon": 69.48221223370973,
        "alt_km": 517.9232026171103,
        "timestamp": "2025-12-19T20:42:58.812084+00:00",
        "meta_object_name": "TRANSPORTER-15 H",
        "meta_object_id": "2025-276H",
        "meta_epoch": "2025-12-19T00:15:43.077600",
        "meta_mean_motion": 15.17042989,
        "meta_eccentricity": 0.00059238,
        "meta_inclination": 97.4377,
        "meta_ra_of_asc_node": 64.6376,
        "meta_arg_of_pericenter": 285.991,
        "meta_mean_anomaly": 74.0671,
        "meta_ephemeris_type": 0,
        "meta_classification_type": "U",
        "meta_norad_cat_id": 66673,
        "meta_element_set_no": 999,
        "meta_rev_at_epoch": 307,
        "meta_bstar": 0.00065939119,
        "meta_mean_motion_dot": 0.00012997,
        "meta_mean_motion_ddot": 0,
        "tle_line1": "1 66673U 25276H   25353.01091525  .00012997  00000+0  65939-3 0  9993",
        "tle_line2": "2 66673  97.4377  64.6376 0005923 285.9910  74.0671 15.17042989  3073"
      },
      "geometry": {
        "type": "Point",
        "coordinates": [
          69.48221223370973,
          -28.14989814460902
        ]
      }
    },
    {
      "type": "Feature",
      "properties": {
        "norad_id": 66674,
        "name": "TRANSPORTER-15 J",
        "group": "last-30-days",
        "lat": -35.463130071364986,
        "lon": 70.81421946840602,
        "alt_km": 520.1749472908496,
        "timestamp": "2025-12-19T20:42:58.812095+00:00",
        "meta_object_name": "TRANSPORTER-15 J",
        "meta_object_id": "2025-276J",
        "meta_epoch": "2025-12-18T17:57:22.864320",
        "meta_mean_motion": 15.16702866,
        "meta_eccentricity": 0.00049846,
        "meta_inclination": 97.4387,
        "meta_ra_of_asc_node": 64.3803,
        "meta_arg_of_pericenter": 273.0795,
        "meta_mean_anomaly": 86.9868,
        "meta_ephemeris_type": 0,
        "meta_classification_type": "U",
        "meta_norad_cat_id": 66674,
        "meta_element_set_no": 999,
        "meta_rev_at_epoch": 303,
        "meta_bstar": 0.0001795625,
        "meta_mean_motion_dot": 3.452e-05,
        "meta_mean_motion_ddot": 0,
        "tle_line1": "1 66674U 25276J   25352.74818130  .00003452  00000+0  17956-3 0  9994",
        "tle_line2": "2 66674  97.4387  64.3803 0004984 273.0795  86.9868 15.16702866  3034"
      },
      "geometry": {
        "type": "Point",
        "coordinates": [
          70.81421946840602,
          -35.463130071364986
        ]
      }
    },
    {
      "type": "Feature",
      "properties": {
        "norad_id": 66675,
        "name": "TRANSPORTER-15 K",
        "group": "last-30-days",
        "lat": -27.106934245470427,
        "lon": 69.31646264894657,
        "alt_km": 519.135057572531,
        "timestamp": "2025-12-19T20:42:58.812105+00:00",
        "meta_object_name": "TRANSPORTER-15 K",
        "meta_object_id": "2025-276K",
        "meta_epoch": "2025-12-19T03:25:19.850304",
        "meta_mean_motion": 15.16941033,
        "meta_eccentricity": 0.00050242,
        "meta_inclination": 97.4401,
        "meta_ra_of_asc_node": 64.7737,
        "meta_arg_of_pericenter": 275.6289,
        "meta_mean_anomaly": 84.4371,
        "meta_ephemeris_type": 0,
        "meta_classification_type": "U",
        "meta_norad_cat_id": 66675,
        "meta_element_set_no": 999,
        "meta_rev_at_epoch": 309,
        "meta_bstar": 0.00042856349,
        "meta_mean_motion_dot": 8.393e-05,
        "meta_mean_motion_ddot": 0,
        "tle_line1": "1 66675U 25276K   25353.14259086  .00008393  00000+0  42856-3 0  9995",
        "tle_line2": "2 66675  97.4401  64.7737 0005024 275.6289  84.4371 15.16941033  3093"
      },
      "geometry": {
        "type": "Point",
        "coordinates": [
          69.31646264894657,
          -27.106934245470427
        ]
      }
    }
  ]
}